CCSDS_OMM_VERS = 2.0
CREATION_DATE  = 
ORIGINATOR     = 

OBJECT_NAME    = STARLINK-36662
OBJECT_ID      = 2026-033M
CENTER_NAME    = EARTH
REF_FRAME      = TEME
TIME_SYSTEM    = UTC
MEAN_ELEMENT_THEORY = SGP/SGP4

EPOCH          = 2026-03-06T15:53:16.519200
MEAN_MOTION    = 15.84511742
ECCENTRICITY   = .00018852
INCLINATION    = 42.9958
RA_OF_ASC_NODE = 289.1431
ARG_OF_PERICENTER = 258.4669
MEAN_ANOMALY   = 101.5992

EPHEMERIS_TYPE = 0
CLASSIFICATION_TYPE = U
NORAD_CAT_ID   = 67832
ELEMENT_SET_NO = 999
REV_AT_EPOCH   = 415
BSTAR          = .17543365E-2
MEAN_MOTION_DOT = .436687E-2
MEAN_MOTION_DDOT = 0

CCSDS_OMM_VERS = 2.0
CREATION_DATE  = 
ORIGINATOR     = 

OBJECT_NAME    = STARLINK-36659
OBJECT_ID      = 2026-033N
CENTER_NAME    = EARTH
REF_FRAME      = TEME
TIME_SYSTEM    = UTC
MEAN_ELEMENT_THEORY = SGP/SGP4

EPOCH          = 2026-03-06T15:44:10.467744
MEAN_MOTION    = 15.82145499
ECCENTRICITY   = .00015583
INCLINATION    = 42.9967
RA_OF_ASC_NODE = 290.0015
ARG_OF_PERICENTER = 278.6646
MEAN_ANOMALY   = 81.4050

EPHEMERIS_TYPE = 0
CLASSIFICATION_TYPE = U
NORAD_CAT_ID   = 67833
ELEMENT_SET_NO = 999
REV_AT_EPOCH   = 414
BSTAR          = .1433123E-2
MEAN_MOTION_DOT = .314345E-2
MEAN_MOTION_DDOT = 0

CCSDS_OMM_VERS = 2.0
CREATION_DATE  = 
ORIGINATOR     = 

OBJECT_NAME    = STARLINK-36655
OBJECT_ID      = 2026-033P
CENTER_NAME    = EARTH
REF_FRAME      = TEME
TIME_SYSTEM    = UTC
MEAN_ELEMENT_THEORY = SGP/SGP4

EPOCH          = 2026-03-06T15:43:05.586528
MEAN_MOTION    = 15.82134446
ECCENTRICITY   = .00020125
INCLINATION    = 42.9972
RA_OF_ASC_NODE = 289.9955
ARG_OF_PERICENTER = 263.7614
MEAN_ANOMALY   = 96.3029

EPHEMERIS_TYPE = 0
CLASSIFICATION_TYPE = U
NORAD_CAT_ID   = 67834
ELEMENT_SET_NO = 999
REV_AT_EPOCH   = 414
BSTAR          = .12466541E-2
MEAN_MOTION_DOT = .271883E-2
MEAN_MOTION_DDOT = 0

CCSDS_OMM_VERS = 2.0
CREATION_DATE  = 
ORIGINATOR     = 

OBJECT_NAME    = STARLINK-36657
OBJECT_ID      = 2026-033Q
CENTER_NAME    = EARTH
REF_FRAME      = TEME
TIME_SYSTEM    = UTC
MEAN_ELEMENT_THEORY = SGP/SGP4

EPOCH          = 2026-03-06T15:42:00.740736
MEAN_MOTION    = 15.82121645
ECCENTRICITY   = .00026298
INCLINATION    = 42.9974
RA_OF_ASC_NODE = 289.9892
ARG_OF_PERICENTER = 273.0491
MEAN_ANOMALY   = 87.0080

EPHEMERIS_TYPE = 0
CLASSIFICATION_TYPE = U
NORAD_CAT_ID   = 67835
ELEMENT_SET_NO = 999
REV_AT_EPOCH   = 414
BSTAR          = .12504886E-2
MEAN_MOTION_DOT = .272592E-2
MEAN_MOTION_DDOT = 0

CCSDS_OMM_VERS = 2.0
CREATION_DATE  = 
ORIGINATOR     = 

OBJECT_NAME    = STARLINK-36650
OBJECT_ID      = 2026-033R
CENTER_NAME    = EARTH
REF_FRAME      = TEME
TIME_SYSTEM    = UTC
MEAN_ELEMENT_THEORY = SGP/SGP4

EPOCH          = 2026-03-06T15:40:56.384832
MEAN_MOTION    = 15.82087313
ECCENTRICITY   = .00018323
INCLINATION    = 42.9971
RA_OF_ASC_NODE = 289.9837
ARG_OF_PERICENTER = 277.2771
MEAN_ANOMALY   = 82.7893

EPHEMERIS_TYPE = 0
CLASSIFICATION_TYPE = U
NORAD_CAT_ID   = 67836
ELEMENT_SET_NO = 999
REV_AT_EPOCH   = 414
BSTAR          = .16427979E-2
MEAN_MOTION_DOT = .361422E-2
MEAN_MOTION_DDOT = 0

CCSDS_OMM_VERS = 2.0
CREATION_DATE  = 
ORIGINATOR     = 

OBJECT_NAME    = STARLINK-36649
OBJECT_ID      = 2026-033S
CENTER_NAME    = EARTH
REF_FRAME      = TEME
TIME_SYSTEM    = UTC
MEAN_ELEMENT_THEORY = SGP/SGP4

EPOCH          = 2026-03-06T15:39:51.415488
MEAN_MOTION    = 15.82103619
ECCENTRICITY   = .00018602
INCLINATION    = 42.9971
RA_OF_ASC_NODE = 289.9772
ARG_OF_PERICENTER = 272.5663
MEAN_ANOMALY   = 87.4996

EPHEMERIS_TYPE = 0
CLASSIFICATION_TYPE = U
NORAD_CAT_ID   = 67837
ELEMENT_SET_NO = 999
REV_AT_EPOCH   = 414
BSTAR          = .19699521E-2
MEAN_MOTION_DOT = .437732E-2
MEAN_MOTION_DDOT = 0

CCSDS_OMM_VERS = 2.0
CREATION_DATE  = 
ORIGINATOR     = 

OBJECT_NAME    = STARLINK-36654
OBJECT_ID      = 2026-033T
CENTER_NAME    = EARTH
REF_FRAME      = TEME
TIME_SYSTEM    = UTC
MEAN_ELEMENT_THEORY = SGP/SGP4

EPOCH          = 2026-03-06T15:38:46.622400
MEAN_MOTION    = 15.82143369
ECCENTRICITY   = .00021136
INCLINATION    = 42.9973
RA_OF_ASC_NODE = 289.9708
ARG_OF_PERICENTER = 264.2711
MEAN_ANOMALY   = 95.7920

EPHEMERIS_TYPE = 0
CLASSIFICATION_TYPE = U
NORAD_CAT_ID   = 67838
ELEMENT_SET_NO = 999
REV_AT_EPOCH   = 414
BSTAR          = .13414501E-2
MEAN_MOTION_DOT = .29346E-2
MEAN_MOTION_DDOT = 0

CCSDS_OMM_VERS = 2.0
CREATION_DATE  = 
ORIGINATOR     = 

OBJECT_NAME    = STARLINK-36652
OBJECT_ID      = 2026-033U
CENTER_NAME    = EARTH
REF_FRAME      = TEME
TIME_SYSTEM    = UTC
MEAN_ELEMENT_THEORY = SGP/SGP4

EPOCH          = 2026-03-06T15:37:42.018528
MEAN_MOTION    = 15.82123870
ECCENTRICITY   = .00018924
INCLINATION    = 42.9973
RA_OF_ASC_NODE = 289.9647
ARG_OF_PERICENTER = 271.8007
MEAN_ANOMALY   = 88.2648

EPHEMERIS_TYPE = 0
CLASSIFICATION_TYPE = U
NORAD_CAT_ID   = 67839
ELEMENT_SET_NO = 999
REV_AT_EPOCH   = 414
BSTAR          = .12094873E-2
MEAN_MOTION_DOT = .263368E-2
MEAN_MOTION_DDOT = 0

CCSDS_OMM_VERS = 2.0
CREATION_DATE  = 
ORIGINATOR     = 

OBJECT_NAME    = STARLINK-36651
OBJECT_ID      = 2026-033V
CENTER_NAME    = EARTH
REF_FRAME      = TEME
TIME_SYSTEM    = UTC
MEAN_ELEMENT_THEORY = SGP/SGP4

EPOCH          = 2026-03-06T15:36:37.440576
MEAN_MOTION    = 15.81986938
ECCENTRICITY   = .00017269
INCLINATION    = 42.9974
RA_OF_ASC_NODE = 289.9578
ARG_OF_PERICENTER = 275.6196
MEAN_ANOMALY   = 84.4479

EPHEMERIS_TYPE = 0
CLASSIFICATION_TYPE = U
NORAD_CAT_ID   = 67840
ELEMENT_SET_NO = 999
REV_AT_EPOCH   = 414
BSTAR          = .92759178E-3
MEAN_MOTION_DOT = .19907E-2
MEAN_MOTION_DDOT = 0

CCSDS_OMM_VERS = 2.0
CREATION_DATE  = 
ORIGINATOR     = 

OBJECT_NAME    = STARLINK-36656
OBJECT_ID      = 2026-033W
CENTER_NAME    = EARTH
REF_FRAME      = TEME
TIME_SYSTEM    = UTC
MEAN_ELEMENT_THEORY = SGP/SGP4

EPOCH          = 2026-03-06T15:35:32.540352
MEAN_MOTION    = 15.82074813
ECCENTRICITY   = .00020704
INCLINATION    = 42.9977
RA_OF_ASC_NODE = 289.9517
ARG_OF_PERICENTER = 262.6618
MEAN_ANOMALY   = 97.4018

EPHEMERIS_TYPE = 0
CLASSIFICATION_TYPE = U
NORAD_CAT_ID   = 67841
ELEMENT_SET_NO = 999
REV_AT_EPOCH   = 414
BSTAR          = .13833881E-2
MEAN_MOTION_DOT = .301982E-2
MEAN_MOTION_DDOT = 0

CCSDS_OMM_VERS = 2.0
CREATION_DATE  = 
ORIGINATOR     = 

OBJECT_NAME    = STARLINK-36653
OBJECT_ID      = 2026-033X
CENTER_NAME    = EARTH
REF_FRAME      = TEME
TIME_SYSTEM    = UTC
MEAN_ELEMENT_THEORY = SGP/SGP4

EPOCH          = 2026-03-06T15:34:27.559776
MEAN_MOTION    = 15.82095000
ECCENTRICITY   = .00020977
INCLINATION    = 42.9971
RA_OF_ASC_NODE = 289.9458
ARG_OF_PERICENTER = 265.8658
MEAN_ANOMALY   = 94.1974

EPHEMERIS_TYPE = 0
CLASSIFICATION_TYPE = U
NORAD_CAT_ID   = 67842
ELEMENT_SET_NO = 999
REV_AT_EPOCH   = 414
BSTAR          = .14987723E-2
MEAN_MOTION_DOT = .328542E-2
MEAN_MOTION_DDOT = 0

CCSDS_OMM_VERS = 2.0
CREATION_DATE  = 
ORIGINATOR     = 

OBJECT_NAME    = STARLINK-36589
OBJECT_ID      = 2026-033Y
CENTER_NAME    = EARTH
REF_FRAME      = TEME
TIME_SYSTEM    = UTC
MEAN_ELEMENT_THEORY = SGP/SGP4

EPOCH          = 2026-03-06T15:33:23.191776
MEAN_MOTION    = 15.82073688
ECCENTRICITY   = .00020517
INCLINATION    = 42.9971
RA_OF_ASC_NODE = 289.9399
ARG_OF_PERICENTER = 286.3874
MEAN_ANOMALY   = 73.6772

EPHEMERIS_TYPE = 0
CLASSIFICATION_TYPE = U
NORAD_CAT_ID   = 67843
ELEMENT_SET_NO = 999
REV_AT_EPOCH   = 414
BSTAR          = .1336671E-2
MEAN_MOTION_DOT = .29139E-2
MEAN_MOTION_DDOT = 0

CCSDS_OMM_VERS = 2.0
CREATION_DATE  = 
ORIGINATOR     = 

OBJECT_NAME    = STARLINK-36598
OBJECT_ID      = 2026-033Z
CENTER_NAME    = EARTH
REF_FRAME      = TEME
TIME_SYSTEM    = UTC
MEAN_ELEMENT_THEORY = SGP/SGP4

EPOCH          = 2026-03-06T15:32:18.393504
MEAN_MOTION    = 15.82077584
ECCENTRICITY   = .00024015
INCLINATION    = 42.9974
RA_OF_ASC_NODE = 289.9338
ARG_OF_PERICENTER = 277.3086
MEAN_ANOMALY   = 82.7513

EPHEMERIS_TYPE = 0
CLASSIFICATION_TYPE = U
NORAD_CAT_ID   = 67844
ELEMENT_SET_NO = 999
REV_AT_EPOCH   = 414
BSTAR          = .87858683E-3
MEAN_MOTION_DOT = .189116E-2
MEAN_MOTION_DDOT = 0

CCSDS_OMM_VERS = 2.0
CREATION_DATE  = 
ORIGINATOR     = 

OBJECT_NAME    = STARLINK-36606
OBJECT_ID      = 2026-033AA
CENTER_NAME    = EARTH
REF_FRAME      = TEME
TIME_SYSTEM    = UTC
MEAN_ELEMENT_THEORY = SGP/SGP4

EPOCH          = 2026-03-06T15:31:13.719648
MEAN_MOTION    = 15.82050460
ECCENTRICITY   = .00021619
INCLINATION    = 42.9975
RA_OF_ASC_NODE = 289.9271
ARG_OF_PERICENTER = 263.8727
MEAN_ANOMALY   = 96.1898

EPHEMERIS_TYPE = 0
CLASSIFICATION_TYPE = U
NORAD_CAT_ID   = 67845
ELEMENT_SET_NO = 999
REV_AT_EPOCH   = 414
BSTAR          = .11326517E-2
MEAN_MOTION_DOT = .245242E-2
MEAN_MOTION_DDOT = 0

CCSDS_OMM_VERS = 2.0
CREATION_DATE  = 
ORIGINATOR     = 

OBJECT_NAME    = STARLINK-36658
OBJECT_ID      = 2026-033AB
CENTER_NAME    = EARTH
REF_FRAME      = TEME
TIME_SYSTEM    = UTC
MEAN_ELEMENT_THEORY = SGP/SGP4

EPOCH          = 2026-03-06T15:30:08.721792
MEAN_MOTION    = 15.82098649
ECCENTRICITY   = .0002305
INCLINATION    = 42.9973
RA_OF_ASC_NODE = 289.9208
ARG_OF_PERICENTER = 268.8793
MEAN_ANOMALY   = 91.1815

EPHEMERIS_TYPE = 0
CLASSIFICATION_TYPE = U
NORAD_CAT_ID   = 67846
ELEMENT_SET_NO = 999
REV_AT_EPOCH   = 414
BSTAR          = .99774945E-3
MEAN_MOTION_DOT = .215715E-2
MEAN_MOTION_DDOT = 0

